{
    "links": {
        "self": "http://www.neowsapp.com/rest/v1/neo/3404128?api_key=iIulBulltgU6a56xZRHN4H3l9WmuAYTsLGpBGhQ2"
    },
    "id": "3404128",
    "neo_reference_id": "3404128",
    "name": "(2008 DA4)",
    "designation": "2008 DA4",
    "nasa_jpl_url": "http://ssd.jpl.nasa.gov/sbdb.cgi?sstr=3404128",
    "absolute_magnitude_h": 23.9,
    "estimated_diameter": {
        "kilometers": {
            "estimated_diameter_min": 0.04411182,
            "estimated_diameter_max": 0.0986370281
        },
        "meters": {
            "estimated_diameter_min": 44.1118199997,
            "estimated_diameter_max": 98.6370281305
        },
        "miles": {
            "estimated_diameter_min": 0.0274098057,
            "estimated_diameter_max": 0.0612901888
        },
        "feet": {
            "estimated_diameter_min": 144.7238235278,
            "estimated_diameter_max": 323.6123073718
        }
    },
    "is_potentially_hazardous_asteroid": false,
    "close_approach_data": [
        {
            "close_approach_date": "1939-11-15",
            "close_approach_date_full": "1939-Nov-15 01:07",
            "epoch_date_close_approach": -950827980000,
            "relative_velocity": {
                "kilometers_per_second": "14.6132332816",
                "kilometers_per_hour": "52607.6398135937",
                "miles_per_hour": "32688.3415275077"
            },
            "miss_distance": {
                "astronomical": "0.1422593955",
                "lunar": "55.3389048495",
                "kilometers": "21281702.554287585",
                "miles": "13223836.769775273"
            },
            "orbiting_body": "Earth"
        },
        {
            "close_approach_date": "1949-06-09",
            "close_approach_date_full": "1949-Jun-09 08:24",
            "epoch_date_close_approach": -648920160000,
            "relative_velocity": {
                "kilometers_per_second": "4.8071057643",
                "kilometers_per_hour": "17305.580751457",
                "miles_per_hour": "10753.0148841484"
            },
            "miss_distance": {
                "astronomical": "1.5115134789",
                "lunar": "587.9787432921",
                "kilometers": "226119196.919729943",
                "miles": "140503953.7110134934"
            },
            "orbiting_body": "Juptr"
        },
        {
            "close_approach_date": "2008-02-15",
            "close_approach_date_full": "2008-Feb-15 19:37",
            "epoch_date_close_approach": 1203104220000,
            "relative_velocity": {
                "kilometers_per_second": "12.2646591219",
                "kilometers_per_hour": "44152.7728389523",
                "miles_per_hour": "27434.8159898479"
            },
            "miss_distance": {
                "astronomical": "0.0241660029",
                "lunar": "9.4005751281",
                "kilometers": "3615182.560253823",
                "miles": "2246370.2773678374"
            },
            "orbiting_body": "Earth"
        }
    ],
    "orbital_data": {
        "orbit_id": "17",
        "orbit_determination_date": "2017-04-06 09:04:15",
        "first_observation_date": "2008-02-27",
        "last_observation_date": "2008-03-13",
        "data_arc_in_days": 15,
        "observations_used": 78,
        "orbit_uncertainty": "7",
        "minimum_orbit_intersection": ".00658565",
        "jupiter_tisserand_invariant": "3.207",
        "epoch_osculation": "2459000.5",
        "eccentricity": ".6249108453885144",
        "semi_major_axis": "2.42757853082604",
        "inclination": "4.215566948514332",
        "ascending_node_longitude": "146.5076240523708",
        "orbital_period": "1381.523761188448",
        "perihelion_distance": ".9105583788805317",
        "perihelion_argument": "317.5817770511871",
        "aphelion_distance": "3.944598682771548",
        "perihelion_time": "2458621.374175128209",
        "mean_anomaly": "98.79330402282336",
        "mean_motion": ".2605818373259913",
        "equinox": "J2000",
        "orbit_class": {
            "orbit_class_type": "APO",
            "orbit_class_description": "Near-Earth asteroid orbits which cross the Earth’s orbit similar to that of 1862 Apollo",
            "orbit_class_range": "a (semi-major axis) > 1.0 AU; q (perihelion) < 1.017 AU"
        }
    },
    "is_sentry_object": false
}